#aV2023  6 27  0  0  0.00000000     288 DD+AD WGS84 FIT  NGA
## 2268 172800.00000000   300.00000000 60122 0.0000000000000
+   32     1  2  3  4  5  6  7  8  9 10 11 12 13 14 15 16 17
+         18 19 20 21 22 23 24 25 26 27 28 29 30 31 32  0  0
+          0  0  0  0  0  0  0  0  0  0  0  0  0  0  0  0  0
+          0  0  0  0  0  0  0  0  0  0  0  0  0  0  0  0  0
+          0  0  0  0  0  0  0  0  0  0  0  0  0  0  0  0  0
++         2  2  2  2  2  2  2  2  2  2  2  2  2  2  2  2  2
++         2  2  2  2  2  2  2  2  2  2  2  2  2  2  2  0  0
++         0  0  0  0  0  0  0  0  0  0  0  0  0  0  0  0  0
++         0  0  0  0  0  0  0  0  0  0  0  0  0  0  0  0  0
++         0  0  0  0  0  0  0  0  0  0  0  0  0  0  0  0  0
%c cc cc ccc ccc cccc cccc cccc cccc ccccc ccccc ccccc ccccc
%c cc cc ccc ccc cccc cccc cccc cccc ccccc ccccc ccccc ccccc
%f  0.0000000  0.000000000  0.00000000000  0.000000000000000
%f  0.0000000  0.000000000  0.00000000000  0.000000000000000
%i    0    0    0    0      0      0      0      0         0
%i    0    0    0    0      0      0      0      0         0
/*      NGA, ST. LOUIS,MO.                                  
/*   EPHEMERIS COMPUTED FROM 2 DAYS OF DATA                 
/*   EPOCHA v8 SMOOTHER                                     
/*   G2139 IERS2010 SATIGS SATAPC                           
*  2023  6 27 23 40  0.00000000
P  1 -13597.507963  17551.930549  13966.497081    175.830737                    
V  1   2509.806057 -18324.290180  25202.257872     -0.021480                    
P  2 -14776.685880  12098.443821  18899.221106   -581.649265                    
V  2   1774.752801 -22964.538250  16678.731266      0.037063                    
P  3 -21408.733416  12989.156262  -8808.433843   -254.488739                    
V  3 -11123.945999   1326.710744  29568.094619      0.143913                    
P  4 -11587.504395   9851.509873 -21766.034394     80.207282                    
V  4 -19724.375214 -19384.806038   1613.265614      0.105601                    
P  5  25322.596261  -3922.377274  -7388.623113   -132.770148                    
V  5  -7727.350706   5366.340465 -29949.957240     -0.014455                    
P  6   6625.412913  19644.490619 -16488.555202    582.401200                    
V  6  -6013.232704  20192.204984  21655.701435     -0.026436                    
P  7  -5589.381805  25689.479776    125.158499    140.601774                    
V  7  -3423.173991  -1157.428699 -31833.407367     -0.104216                    
P  8 -19889.719227   -717.309857  17702.704649   -129.454752                    
V  8 -16072.232506 -15793.698031 -18232.788966     -0.018274                    
P  9  -1676.898632  17348.737099 -20102.167555   -125.564637                    
V  9 -19895.381491 -15817.128835 -12076.281445      0.090483                    
P 10  -7174.538939 -13260.756419  22064.617579    -42.930099                    
V 10  26175.862391  -8458.500731   3150.649189     -0.015431                    
P 11  14319.371051   4901.446756 -21820.976044   -252.963458                    
V 11  -7350.948386  26713.627589   1133.131761     -0.155254                    
P 12  23806.583126 -10125.979064  -6095.400122   -393.929874                    
V 12   7801.485290    774.940826  30646.143096     -0.046711                    
P 13  20463.881652   9864.364272  13752.423091    539.815103                    
V 13   9849.446904  14787.084250 -24729.807800      0.050843                    
P 14   3442.090001  15110.775942  21582.733394    104.628088                    
V 14 -26413.818363   7343.398087  -1085.620561      0.122432                    
P 15  19653.872649  -2220.847945  17381.136939     52.863917                    
V 15  17834.485650  14648.908445 -17566.377438      0.035380                    
P 16 -24685.674480  -1931.822545 -10505.805259   -486.946558                    
V 16  12004.663413  -4677.242067 -27728.610073      0.041111                    
P 17  11907.124659  21776.070378   9735.910404    719.630264                    
V 17  -9730.136889  -6953.277205  28823.156124      0.010336                    
P 18   4394.700651 -25977.295398   2571.046132   -324.472784                    
V 18   3221.189035  -2601.880496 -31926.172748     -0.146662                    
P 19  16962.491353  20596.625235   1440.417701    336.415742                    
V 19  -3002.090444   -112.442223  31744.729660      0.051356                    
P 20  21179.334164   1775.318724 -15774.822732    425.665439                    
V 20 -16890.916683  11320.694749 -21542.027659     -0.020384                    
P 21 -15366.700751   8205.185393  20330.506964    152.722544                    
V 21   1807.740160 -24865.017253  12580.624141     -0.003511                    
P 22 -18466.972719 -19174.546751   -674.725288    504.533078                    
V 22    983.229112  -2820.160756  31682.306882      0.057890                    
P 23   6704.829935 -16488.914857  19664.402059     37.455523                    
V 23  23945.766621  -7180.558067 -14342.217201      0.038642                    
P 24  14401.204545 -13834.360832  16943.131236   -239.540280                    
V 24   -305.738363  22605.624771  18748.302542     -0.127467                    
P 25  14079.480209 -16366.570554 -15606.669135    452.619762                    
V 25  19093.804641  -4012.825582  22135.052843      0.024661                    
P 26 -17279.187468  -8065.744706 -18738.222697    238.003922                    
V 26  21296.050086 -10128.363230 -15030.267985     -0.009630                    
P 27 -22227.974899 -11476.862344   9260.059506      7.919553                    
V 27  -7477.032450  -9600.191678 -28652.947526     -0.074626                    
P 28  -6678.735736 -21024.944558 -14815.304639     83.618120                    
V 28   5393.314579 -18100.167782  23283.453021     -0.001326                    
P 29   4618.233352 -15732.416301 -20928.602386   -604.079026                    
V 29  18685.924701  18703.209461 -10054.898068     -0.010576                    
P 30   1357.211600  24770.346398   9226.907404   -508.157446                    
V 30  -5962.044970  10625.089975 -28268.973930      0.026026                    
P 31 -12787.448068 -10322.099640 -20957.542495   -219.017621                    
V 31   7157.887780 -25355.450199   8609.143023     -0.007209                    
P 32 -15185.470803 -20650.202693   7524.232314   -509.614147                    
V 32   8558.708956   4324.007905  29669.245010     -0.080959                    
EOF
